[{"OBJECT_NAME":"STARLINK-1609","OBJECT_ID":"2021-012B","EPOCH":"2026-03-09T23:09:01.681920","MEAN_MOTION":15.30181084,"ECCENTRICITY":0.00015265,"INCLINATION":53.1612,"RA_OF_ASC_NODE":63.6722,"ARG_OF_PERICENTER":85.4135,"MEAN_ANOMALY":274.704,"EPHEMERIS_TYPE":0,"CLASSIFICATION_TYPE":"U","NORAD_CAT_ID":47621,"ELEMENT_SET_NO":999,"REV_AT_EPOCH":28013,"BSTAR":-4.002694e-5,"MEAN_MOTION_DOT":-1.544e-5,"MEAN_MOTION_DDOT":0},{"OBJECT_NAME":"HAWK-11A","OBJECT_ID":"2024-247F","EPOCH":"2026-03-09T12:17:43.893312","MEAN_MOTION":15.28849427,"ECCENTRICITY":0.00054663,"INCLINATION":44.9941,"RA_OF_ASC_NODE":114.3328,"ARG_OF_PERICENTER":327.3713,"MEAN_ANOMALY":32.6832,"EPHEMERIS_TYPE":0,"CLASSIFICATION_TYPE":"U","NORAD_CAT_ID":62382,"ELEMENT_SET_NO":999,"REV_AT_EPOCH":6774,"BSTAR":0.00034106017,"MEAN_MOTION_DOT":9.457e-5,"MEAN_MOTION_DDOT":0}]
